{
  "type": "FeatureCollection",
  "features": [
    {
      "type": "Feature",
      "properties": {
        "norad_id": 35065,
        "name": "COSMOS 2251 DEB",
        "group": "cosmos-2251-debris",
        "lat": 61.97444783186703,
        "lon": -128.36164704418835,
        "alt_km": 736.2819575050016,
        "timestamp": "2025-12-10T04:57:30.017850+00:00",
        "meta_object_name": "COSMOS 2251 DEB",
        "meta_object_id": "1993-036AHU",
        "meta_epoch": "2025-12-08T21:05:49.871616",
        "meta_mean_motion": 14.4570853,
        "meta_eccentricity": 0.0019714,
        "meta_inclination": 74.0196,
        "meta_ra_of_asc_node": 201.5431,
        "meta_arg_of_pericenter": 327.1177,
        "meta_mean_anomaly": 32.8753,
        "meta_ephemeris_type": 0,
        "meta_classification_type": "U",
        "meta_norad_cat_id": 35065,
        "meta_element_set_no": 999,
        "meta_rev_at_epoch": 68295,
        "meta_bstar": 0.00050947,
        "meta_mean_motion_dot": 1.782e-05,
        "meta_mean_motion_ddot": 0,
        "tle_line1": "1 35065U 93036AHU 25342.87904944  .00001782  00000+0  50947-3 0  9996",
        "tle_line2": "2 35065  74.0196 201.5431 0019714 327.1177  32.8753 14.45708530682959"
      },
      "geometry": {
        "type": "Point",
        "coordinates": [
          -128.36164704418835,
          61.97444783186703
        ]
      }
    },
    {
      "type": "Feature",
      "properties": {
        "norad_id": 35071,
        "name": "COSMOS 2251 DEB",
        "group": "cosmos-2251-debris",
        "lat": 55.275389933583426,
        "lon": -25.92734389126796,
        "alt_km": 517.164422686943,
        "timestamp": "2025-12-10T04:57:30.017860+00:00",
        "meta_object_name": "COSMOS 2251 DEB",
        "meta_object_id": "1993-036AJA",
        "meta_epoch": "2025-12-06T06:11:48.969024",
        "meta_mean_motion": 15.03269957,
        "meta_eccentricity": 0.00683754,
        "meta_inclination": 73.9314,
        "meta_ra_of_asc_node": 186.7627,
        "meta_arg_of_pericenter": 85.1943,
        "meta_mean_anomaly": 275.7048,
        "meta_ephemeris_type": 0,
        "meta_classification_type": "U",
        "meta_norad_cat_id": 35071,
        "meta_element_set_no": 999,
        "meta_rev_at_epoch": 67439,
        "meta_bstar": 0.0011992827,
        "meta_mean_motion_dot": 0.00017109,
        "meta_mean_motion_ddot": 0,
        "tle_line1": "1 35071U 93036AJA 25340.25820566  .00017109  00000+0  11993-2 0  9997",
        "tle_line2": "2 35071  73.9314 186.7627 0068375  85.1943 275.7048 15.03269957674390"
      },
      "geometry": {
        "type": "Point",
        "coordinates": [
          -25.92734389126796,
          55.275389933583426
        ]
      }
    },
    {
      "type": "Feature",
      "properties": {
        "norad_id": 35073,
        "name": "COSMOS 2251 DEB",
        "group": "cosmos-2251-debris",
        "lat": -68.13655937329696,
        "lon": -158.60706620048617,
        "alt_km": 579.6337187437239,
        "timestamp": "2025-12-10T04:57:30.017870+00:00",
        "meta_object_name": "COSMOS 2251 DEB",
        "meta_object_id": "1993-036AJC",
        "meta_epoch": "2025-12-06T06:59:58.933248",
        "meta_mean_motion": 14.99991639,
        "meta_eccentricity": 0.00102924,
        "meta_inclination": 74.0009,
        "meta_ra_of_asc_node": 343.7168,
        "meta_arg_of_pericenter": 84.8418,
        "meta_mean_anomaly": 275.3943,
        "meta_ephemeris_type": 0,
        "meta_classification_type": "U",
        "meta_norad_cat_id": 35073,
        "meta_element_set_no": 999,
        "meta_rev_at_epoch": 67382,
        "meta_bstar": 0.0044204403,
        "meta_mean_motion_dot": 0.00055435,
        "meta_mean_motion_ddot": 0,
        "tle_line1": "1 35073U 93036AJC 25340.29165432  .00055435  00000+0  44204-2 0  9992",
        "tle_line2": "2 35073  74.0009 343.7168 0010292  84.8418 275.3943 14.99991639673828"
      },
      "geometry": {
        "type": "Point",
        "coordinates": [
          -158.60706620048617,
          -68.13655937329696
        ]
      }
    },
    {
      "type": "Feature",
      "properties": {
        "norad_id": 35284,
        "name": "COSMOS 2251 DEB",
        "group": "cosmos-2251-debris",
        "lat": -7.944968587009076,
        "lon": 91.37513943224317,
        "alt_km": 778.6823452041363,
        "timestamp": "2025-12-10T04:57:30.017880+00:00",
        "meta_object_name": "COSMOS 2251 DEB",
        "meta_object_id": "1993-036AJN",
        "meta_epoch": "2025-12-09T11:57:18.077760",
        "meta_mean_motion": 14.38312674,
        "meta_eccentricity": 0.00166524,
        "meta_inclination": 74.0492,
        "meta_ra_of_asc_node": 270.3915,
        "meta_arg_of_pericenter": 347.5267,
        "meta_mean_anomaly": 133.7603,
        "meta_ephemeris_type": 0,
        "meta_classification_type": "U",
        "meta_norad_cat_id": 35284,
        "meta_element_set_no": 999,
        "meta_rev_at_epoch": 65479,
        "meta_bstar": 0.00032789073,
        "meta_mean_motion_dot": 9.73e-06,
        "meta_mean_motion_ddot": 0,
        "tle_line1": "1 35284U 93036AJN 25343.49812590  .00000973  00000+0  32789-3 0  9998",
        "tle_line2": "2 35284  74.0492 270.3915 0016652 347.5267 133.7603 14.38312674654794"
      },
      "geometry": {
        "type": "Point",
        "coordinates": [
          91.37513943224317,
          -7.944968587009076
        ]
      }
    },
    {
      "type": "Feature",
      "properties": {
        "norad_id": 35287,
        "name": "COSMOS 2251 DEB",
        "group": "cosmos-2251-debris",
        "lat": 20.594739812689497,
        "lon": -73.03102596890356,
        "alt_km": 757.7161029001163,
        "timestamp": "2025-12-10T04:57:30.017890+00:00",
        "meta_object_name": "COSMOS 2251 DEB",
        "meta_object_id": "1993-036AJR",
        "meta_epoch": "2025-12-08T06:45:42.279840",
        "meta_mean_motion": 14.36370501,
        "meta_eccentricity": 0.00173563,
        "meta_inclination": 74.0304,
        "meta_ra_of_asc_node": 284.3273,
        "meta_arg_of_pericenter": 22.2122,
        "meta_mean_anomaly": 130.0196,
        "meta_ephemeris_type": 0,
        "meta_classification_type": "U",
        "meta_norad_cat_id": 35287,
        "meta_element_set_no": 999,
        "meta_rev_at_epoch": 86828,
        "meta_bstar": 0.00029165774,
        "meta_mean_motion_dot": 8.29e-06,
        "meta_mean_motion_ddot": 0,
        "tle_line1": "1 35287U 93036AJR 25342.28173935  .00000829  00000+0  29166-3 0  9995",
        "tle_line2": "2 35287  74.0304 284.3273 0017356  22.2122 130.0196 14.36370501868289"
      },
      "geometry": {
        "type": "Point",
        "coordinates": [
          -73.03102596890356,
          20.594739812689497
        ]
      }
    },
    {
      "type": "Feature",
      "properties": {
        "norad_id": 35288,
        "name": "COSMOS 2251 DEB",
        "group": "cosmos-2251-debris",
        "lat": -73.72924881866214,
        "lon": -79.4183441441157,
        "alt_km": 655.5665325163955,
        "timestamp": "2025-12-10T04:57:30.017900+00:00",
        "meta_object_name": "COSMOS 2251 DEB",
        "meta_object_id": "1993-036AJS",
        "meta_epoch": "2025-12-08T18:58:17.923872",
        "meta_mean_motion": 14.65390759,
        "meta_eccentricity": 0.00395539,
        "meta_inclination": 73.9507,
        "meta_ra_of_asc_node": 22.8152,
        "meta_arg_of_pericenter": 256.8588,
        "meta_mean_anomaly": 102.8165,
        "meta_ephemeris_type": 0,
        "meta_classification_type": "U",
        "meta_norad_cat_id": 35288,
        "meta_element_set_no": 999,
        "meta_rev_at_epoch": 87820,
        "meta_bstar": 0.0016009913,
        "meta_mean_motion_dot": 8.734e-05,
        "meta_mean_motion_ddot": 0,
        "tle_line1": "1 35288U 93036AJS 25342.79048523  .00008734  00000+0  16010-2 0  9992",
        "tle_line2": "2 35288  73.9507  22.8152 0039553 256.8588 102.8165 14.65390759878203"
      },
      "geometry": {
        "type": "Point",
        "coordinates": [
          -79.4183441441157,
          -73.72924881866214
        ]
      }
    },
    {
      "type": "Feature",
      "properties": {
        "norad_id": 35290,
        "name": "COSMOS 2251 DEB",
        "group": "cosmos-2251-debris",
        "lat": 47.9565110551854,
        "lon": 82.98289798985984,
        "alt_km": 625.4747691988177,
        "timestamp": "2025-12-10T04:57:30.017910+00:00",
        "meta_object_name": "COSMOS 2251 DEB",
        "meta_object_id": "1993-036AJU",
        "meta_epoch": "2025-12-09T15:45:15.253920",
        "meta_mean_motion": 14.80228211,
        "meta_eccentricity": 0.0002577,
        "meta_inclination": 74.005,
        "meta_ra_of_asc_node": 65.5213,
        "meta_arg_of_pericenter": 202.4691,
        "meta_mean_anomaly": 157.6373,
        "meta_ephemeris_type": 0,
        "meta_classification_type": "U",
        "meta_norad_cat_id": 35290,
        "meta_element_set_no": 999,
        "meta_rev_at_epoch": 87912,
        "meta_bstar": 0.0031261,
        "meta_mean_motion_dot": 0.00023834,
        "meta_mean_motion_ddot": 0,
        "tle_line1": "1 35290U 93036AJU 25343.65642655  .00023834  00000+0  31261-2 0  9990",
        "tle_line2": "2 35290  74.0050  65.5213 0002577 202.4691 157.6373 14.80228211879122"
      },
      "geometry": {
        "type": "Point",
        "coordinates": [
          82.98289798985984,
          47.9565110551854
        ]
      }
    }
  ]
}